[
  {
    "OBJECT_NAME": "STARLINK-34384",
    "OBJECT_ID": "25123X",
    "EPOCH": "2025-11-10T21:37:19.430976",
    "MEAN_MOTION": 14.98339065,
    "ECCENTRICITY": 0.0002818,
    "INCLINATION": 69.9993,
    "RA_OF_ASC_NODE": 134.0245,
    "ARG_OF_PERICENTER": 270.5143,
    "MEAN_ANOMALY": 89.5693,
    "EPHEMERIS_TYPE": 0,
    "CLASSIFICATION_TYPE": "U",
    "NORAD_CAT_ID": 64312,
    "ELEMENT_SET_NO": 999,
    "REV_AT_EPOCH": 2382,
    "BSTAR": 0.00053227,
    "MEAN_MOTION_DOT": 6.265e-05,
    "MEAN_MOTION_DDOT": 0.0,
    "TLE_LINE1": "1 64312U 25123X   25314.90091934  .00006265  00000+0  53227-3 0  9999",
    "TLE_LINE2": "2 64312  69.9993 134.0245 0002818 270.5143  89.5693 14.98339065 23826",
    "COMMENT": "Grouped by shell and plane from TLE"
  },
  {
    "OBJECT_NAME": "STARLINK-34358",
    "OBJECT_ID": "25123Y",
    "EPOCH": "2025-11-10T18:13:02.080704",
    "MEAN_MOTION": 14.98338404,
    "ECCENTRICITY": 0.0002998,
    "INCLINATION": 69.999,
    "RA_OF_ASC_NODE": 134.3313,
    "ARG_OF_PERICENTER": 272.8062,
    "MEAN_ANOMALY": 87.2754,
    "EPHEMERIS_TYPE": 0,
    "CLASSIFICATION_TYPE": "U",
    "NORAD_CAT_ID": 64313,
    "ELEMENT_SET_NO": 999,
    "REV_AT_EPOCH": 2380,
    "BSTAR": 0.00057336,
    "MEAN_MOTION_DOT": 6.756e-05,
    "MEAN_MOTION_DDOT": 0.0,
    "TLE_LINE1": "1 64313U 25123Y   25314.75905186  .00006756  00000+0  57336-3 0  9996",
    "TLE_LINE2": "2 64313  69.9990 134.3313 0002998 272.8062  87.2754 14.98338404 23804",
    "COMMENT": "Grouped by shell and plane from TLE"
  },
  {
    "OBJECT_NAME": "STARLINK-34354",
    "OBJECT_ID": "25123Z",
    "EPOCH": "2025-11-11T05:13:57.104256",
    "MEAN_MOTION": 14.98337195,
    "ECCENTRICITY": 0.0003096,
    "INCLINATION": 69.9945,
    "RA_OF_ASC_NODE": 133.123,
    "ARG_OF_PERICENTER": 267.9149,
    "MEAN_ANOMALY": 92.1656,
    "EPHEMERIS_TYPE": 0,
    "CLASSIFICATION_TYPE": "U",
    "NORAD_CAT_ID": 64314,
    "ELEMENT_SET_NO": 999,
    "REV_AT_EPOCH": 2387,
    "BSTAR": 0.00070955,
    "MEAN_MOTION_DOT": 8.385e-05,
    "MEAN_MOTION_DDOT": 0.0,
    "TLE_LINE1": "1 64314U 25123Z   25315.21802204  .00008385  00000+0  70955-3 0  9998",
    "TLE_LINE2": "2 64314  69.9945 133.1230 0003096 267.9149  92.1656 14.98337195 23870",
    "COMMENT": "Grouped by shell and plane from TLE"
  },
  {
    "OBJECT_NAME": "STARLINK-34387",
    "OBJECT_ID": "25123AA",
    "EPOCH": "2025-11-10T11:24:26.920512",
    "MEAN_MOTION": 14.98344572,
    "ECCENTRICITY": 0.0002855,
    "INCLINATION": 69.9987,
    "RA_OF_ASC_NODE": 134.9439,
    "ARG_OF_PERICENTER": 268.7039,
    "MEAN_ANOMALY": 91.3793,
    "EPHEMERIS_TYPE": 0,
    "CLASSIFICATION_TYPE": "U",
    "NORAD_CAT_ID": 64315,
    "ELEMENT_SET_NO": 999,
    "REV_AT_EPOCH": 2376,
    "BSTAR": 0.0006574100000000001,
    "MEAN_MOTION_DOT": 7.763e-05,
    "MEAN_MOTION_DDOT": 0.0,
    "TLE_LINE1": "1 64315U 25123AA  25314.47531158  .00007763  00000+0  65741-3 0  9999",
    "TLE_LINE2": "2 64315  69.9987 134.9439 0002855 268.7039  91.3793 14.98344572 23764",
    "COMMENT": "Grouped by shell and plane from TLE"
  },
  {
    "OBJECT_NAME": "STARLINK-33590",
    "OBJECT_ID": "25123AB",
    "EPOCH": "2025-11-10T18:01:14.770560",
    "MEAN_MOTION": 14.98354777,
    "ECCENTRICITY": 0.0003469,
    "INCLINATION": 69.9964,
    "RA_OF_ASC_NODE": 134.2964,
    "ARG_OF_PERICENTER": 276.6963,
    "MEAN_ANOMALY": 83.3801,
    "EPHEMERIS_TYPE": 0,
    "CLASSIFICATION_TYPE": "U",
    "NORAD_CAT_ID": 64316,
    "ELEMENT_SET_NO": 999,
    "REV_AT_EPOCH": 2380,
    "BSTAR": 0.00044406000000000003,
    "MEAN_MOTION_DOT": 5.213e-05,
    "MEAN_MOTION_DDOT": 0.0,
    "TLE_LINE1": "1 64316U 25123AB  25314.75086540  .00005213  00000+0  44406-3 0  9994",
    "TLE_LINE2": "2 64316  69.9964 134.2964 0003469 276.6963  83.3801 14.98354777 23806",
    "COMMENT": "Grouped by shell and plane from TLE"
  }
]